SENTINEL-2A             
1 40697U 15028A   17345.80185617  .00000032  00000-0  28966-4 0  9998
2 40697  98.5651  58.1970 0001231  87.5978 272.5332 14.30817943129098
